NORAD_CAT_ID,OBJECT_NAME,OBJECT_TYPE,EPOCH,MEAN_MOTION,ECCENTRICITY,INCLINATION,RA_OF_ASC_NODE,ARG_OF_PERICENTER,MEAN_ANOMALY,BSTAR,MEAN_MOTION_DOT,MEAN_MOTION_DDOT,TLE_LINE0,TLE_LINE1,TLE_LINE2,SEMIMAJOR_AXIS,PERIOD,APOGEE,PERIGEE,DECAYED
52689.0,STARLINK-4078,PAYLOAD,2023-01-08 11:51:01,15.08842037,0.0002233,53.2168,294.4999,27.6537,332.4573,0.00020092,2.911e-05,0.0,0 STARLINK-4078,1 52689U 22053AK  23008.49376973  .00002911  00000-0  20092-3 0  9992,2 52689  53.2168 294.4999 0002233  27.6537 332.4573 15.08842037 36209,6917.874,95.437,541.284,538.194,0.0
52689.0,STARLINK-4078,PAYLOAD,2023-01-08 19:47:57,15.08840244,0.000261,53.2173,293.0132,27.7379,332.3752,0.00025209,3.726e-05,0.0,0 STARLINK-4078,1 52689U 22053AK  23008.82497327  .00003726  00000-0  25209-3 0  9996,2 52689  53.2173 293.0132 0002610  27.7379 332.3752 15.08840244 36658,6917.88,95.438,541.55,537.939,0.0
52689.0,STARLINK-4078,PAYLOAD,2023-01-09 05:20:16,15.08850014,0.0002602,53.2173,291.2289,31.6808,328.434,0.00033315,5.019e-05,0.0,0 STARLINK-4078,1 52689U 22053AK  23009.22240836  .00005019  00000-0  33315-3 0  9996,2 52689  53.2173 291.2289 0002602  31.6808 328.4340 15.08850014 36715,6917.85,95.437,541.515,537.915,0.0
52689.0,STARLINK-4078,PAYLOAD,2023-01-10 03:35:40,15.08844023,0.0002686,53.2152,287.0649,32.62,327.4957,0.00015264,2.142e-05,0.0,0 STARLINK-4078,1 52689U 22053AK  23010.14976892  .00002142  00000-0  15264-3 0  9994,2 52689  53.2152 287.0649 0002686  32.6200 327.4957 15.08844023 36451,6917.868,95.437,541.591,537.875,0.0
52689.0,STARLINK-4078,PAYLOAD,2023-01-10 17:54:08,15.08842857,0.0002477,53.215,284.3884,33.1003,327.0144,-1.9949e-05,-6.06e-06,0.0,0 STARLINK-4078,1 52689U 22053AK  23010.74592744 -.00000606  00000-0 -19949-4 0  9990,2 52689  53.2150 284.3884 0002477  33.1003 327.0144 15.08842857 36946,6917.871999999999,95.437,541.45,538.023,0.0
52689.0,STARLINK-4078,PAYLOAD,2023-01-11 11:23:21,15.08859055,0.0002765,53.2165,281.1205,32.1311,327.985,0.00029218,4.367e-05,0.0,0 STARLINK-4078,1 52689U 22053AK  23011.47455618  .00004367  00000-0  29218-3 0  9994,2 52689  53.2165 281.1205 0002765  32.1311 327.9850 15.08859055 36654,6917.821999999999,95.436,541.6,537.774,0.0
52689.0,STARLINK-4078,PAYLOAD,2023-01-11 12:58:44,15.08857975,0.0002565,53.2151,280.8236,30.4487,329.6653,0.00028958,4.326e-05,0.0,0 STARLINK-4078,1 52689U 22053AK  23011.54079677  .00004326  00000-0  28958-3 0  9994,2 52689  53.2151 280.8236 0002565  30.4487 329.6653 15.08857975 37067,6917.825,95.436,541.465,537.9159999999998,0.0
52689.0,STARLINK-4078,PAYLOAD,2023-01-11 20:55:41,15.08840093,0.0002578,53.2157,279.3345,29.3002,330.8134,6.2628e-05,7.08e-06,0.0,0 STARLINK-4078,1 52689U 22053AK  23011.87200298  .00000708  00000-0  62628-4 0  9998,2 52689  53.2157 279.3345 0002578  29.3002 330.8134 15.08840093 37118,6917.88,95.438,541.529,537.962,0.0
52689.0,STARLINK-4078,PAYLOAD,2023-01-12 00:06:27,15.08840931,0.0002741,53.2154,278.7406,29.4151,330.6995,6.8318e-05,7.99e-06,0.0,0 STARLINK-4078,1 52689U 22053AK  23012.00448315  .00000799  00000-0  68318-4 0  9990,2 52689  53.2154 278.7406 0002741  29.4151 330.6995 15.08840931 36735,6917.8780000000015,95.437,541.639,537.846,0.0
52689.0,STARLINK-4078,PAYLOAD,2023-01-12 12:49:33,15.08831951,0.0003003,53.2148,276.36400000000003,33.0237,327.0942,-8.3732e-05,-1.621e-05,0.0,0 STARLINK-4078,1 52689U 22053AK  23012.53441044 -.00001621  00000-0 -83732-4 0  9994,2 52689  53.2148 276.3640 0003003  33.0237 327.0942 15.08831951 36813,6917.905,95.438,541.847,537.693,0.0
52689.0,STARLINK-4078,PAYLOAD,2023-01-12 22:21:52,15.08822887,0.0002036,53.216,274.5759,32.771,327.3408,-0.00027276,-4.625e-05,0.0,0 STARLINK-4078,1 52689U 22053AK  23012.93185680 -.00004625  00000-0 -27276-3 0  9996,2 52689  53.2160 274.5759 0002036  32.7710 327.3408 15.08822887 37274,6917.933000000001,95.439,541.206,538.389,0.0
52689.0,STARLINK-4078,PAYLOAD,2023-01-12 23:57:15,15.08823933,0.0002489,53.2153,274.2804,30.8814,329.2324,-0.00021218,-3.662e-05,0.0,0 STARLINK-4078,1 52689U 22053AK  23012.99809795 -.00003662  00000-0 -21218-3 0  9992,2 52689  53.2153 274.2804 0002489  30.8814 329.2324 15.08823933 36887,6917.929,95.439,541.516,538.073,0.0
52689.0,STARLINK-4078,PAYLOAD,2023-01-13 12:40:20,15.0883467,0.0002476,53.2147,271.9019,33.3139,326.8009,5.3075e-06,-2.04e-06,0.0,0 STARLINK-4078,1 52689U 22053AK  23013.52801677 -.00000204  00000-0  53075-5 0  9999,2 52689  53.2147 271.9019 0002476  33.3139 326.8009 15.08834670 37363,6917.897,95.438,541.475,538.049,0.0
52689.0,STARLINK-4078,PAYLOAD,2023-01-13 19:01:53,15.08836314,0.0002403,53.2146,270.7118,33.5737,326.5407,0.00037598,5.7e-05,0.0,0 STARLINK-4078,1 52689U 22053AK  23013.79298072  .00005700  00000-0  37598-3 0  9992,2 52689  53.2146 270.7118 0002403  33.5737 326.5407 15.08836314 37406,6917.892,95.438,541.419,538.094,0.0
52689.0,STARLINK-4078,PAYLOAD,2023-01-14 17:17:17,15.08848216,0.0002627,53.2144,266.5486,47.0285,313.0927,0.00044927,6.871e-05,0.0,0 STARLINK-4078,1 52689U 22053AK  23014.72034238  .00006871  00000-0  44927-3 0  9992,2 52689  53.2144 266.5486 0002627  47.0285 313.0927 15.08848216 37144,6917.855,95.437,541.538,537.903,0.0
52689.0,STARLINK-4078,PAYLOAD,2023-01-15 02:49:36,15.08841322,0.0002191999999999,53.2142,264.7633,39.9735,320.1418,0.00063276,9.797e-05,0.0,0 STARLINK-4078,1 52689U 22053AK  23015.11778672  .00009797  00000-0  63276-3 0  9991,2 52689  53.2142 264.7633 0002192  39.9735 320.1418 15.08841322 37205,6917.876,95.437,541.258,538.225,0.0
52689.0,STARLINK-4078,PAYLOAD,2023-01-15 12:21:55,15.08841074,0.0002118,53.2136,262.9793,43.1632,316.9526,0.0015235,0.00024043,0.0,0 STARLINK-4078,1 52689U 22053AK  23015.51523093  .00024043  00000-0  15235-2 0  9992,2 52689  53.2136 262.9793 0002118  43.1632 316.9526 15.08841074 37663,6917.877,95.437,541.207,538.2769999999999,0.0
52689.0,STARLINK-4078,PAYLOAD,2023-01-15 21:54:14,15.08874235,0.0002106,53.2136,261.1954,44.0358,316.0802,0.0022201,0.00035256,0.0,0 STARLINK-4078,1 52689U 22053AK  23015.91266535  .00035256  00000-0  22201-2 0  9990,2 52689  53.2136 261.1954 0002106  44.0358 316.0802 15.08874235 37725,6917.776,95.435,541.0980000000001,538.184,0.0
52689.0,STARLINK-4078,PAYLOAD,2023-01-15 23:29:37,15.0888006,0.0002109,53.2136,260.8981,44.007,316.1089,0.0022872,0.00036341,0.0,0 STARLINK-4078,1 52689U 22053AK  23015.97890347  .00036341  00000-0  22872-2 0  9990,2 52689  53.2136 260.8981 0002109  44.0070 316.1089 15.08880060 37333,6917.758000000001,95.435,541.082,538.164,0.0
52689.0,STARLINK-4078,PAYLOAD,2023-01-16 09:01:55,15.08869887,0.0001698,53.2117,259.1152,48.6556,311.4582,0.0011692999999999,0.00018386,0.0,0 STARLINK-4078,1 52689U 22053AK  23016.37633939  .00018386  00000-0  11693-2 0  9995,2 52689  53.2117 259.1152 0001698  48.6556 311.4582 15.08869887 37390,6917.789000000001,95.436,540.8290000000001,538.479,0.0
52689.0,STARLINK-4078,PAYLOAD,2023-01-17 02:31:11,15.08838518,0.0001748,53.2131,255.8422,56.0708,304.045,0.0016922,0.00026745,0.0,0 STARLINK-4078,1 52689U 22053AK  23017.10498879  .00026745  00000-0  16922-2 0  9997,2 52689  53.2131 255.8422 0001748  56.0708 304.0450 15.08838518 37509,6917.885,95.438,540.9590000000001,538.5409999999999,0.0
52689.0,STARLINK-4078,PAYLOAD,2023-01-17 08:52:43,15.08831993,0.0001598,53.2128,254.6523,58.1603,301.9544,0.0010226,0.00016021,0.0,0 STARLINK-4078,1 52689U 22053AK  23017.36995108  .00016021  00000-0  10226-2 0  9999,2 52689  53.2128 254.6523 0001598  58.1603 301.9544 15.08831993 37548,6917.905,95.438,540.875,538.664,0.0
52689.0,STARLINK-4078,PAYLOAD,2023-01-17 21:35:49,15.08834077,0.0001836,53.2133,252.2717,62.4028,297.715,0.00055272,8.518e-05,0.0,0 STARLINK-4078,1 52689U 22053AK  23017.89987500  .00008518  00000-0  55272-3 0  9997,2 52689  53.2133 252.2717 0001836  62.4028 297.7150 15.08834077 38022,6917.898,95.438,541.034,538.493,0.0
52689.0,STARLINK-4078,PAYLOAD,2023-01-17 23:11:12,15.08835325,0.0001793,53.2136,251.9743,62.6132,297.5042,0.00040669,6.19e-05,0.0,0 STARLINK-4078,1 52689U 22053AK  23017.96611470  .00006190  00000-0  40669-3 0  9993,2 52689  53.2136 251.9743 0001793  62.6132 297.5042 15.08835325 37631,6917.895,95.438,541.0,538.519,0.0
52689.0,STARLINK-4078,PAYLOAD,2023-01-18 08:43:31,15.08844177,0.0001799,53.2126,250.1942,58.9307,301.1862,0.00068631,0.00010653,0.0,0 STARLINK-4078,1 52689U 22053AK  23018.36355520  .00010653  00000-0  68631-3 0  9997,2 52689  53.2126 250.1942 0001799  58.9307 301.1862 15.08844177 38098,6917.868,95.437,540.977,538.488,0.0
52689.0,STARLINK-4078,PAYLOAD,2023-01-18 21:26:35,15.08853294,0.0001854,53.2133,247.8142,61.2736,298.8442,0.00061996,9.596e-05,0.0,0 STARLINK-4078,1 52689U 22053AK  23018.89347211  .00009596  00000-0  61996-3 0  9994,2 52689  53.2133 247.8142 0001854  61.2736 298.8442 15.08853294 38171,6917.84,95.437,540.987,538.422,0.0
52689.0,STARLINK-4078,PAYLOAD,2023-01-19 00:37:22,15.08862738,0.0001954,53.214,247.2185,63.9972,296.1221,0.00083951,0.00013106,0.0,0 STARLINK-4078,1 52689U 22053AK  23019.02594933  .00013106  00000-0  83951-3 0  9992,2 52689  53.2140 247.2185 0001954  63.9972 296.1221 15.08862738 37798,6917.811,95.436,541.028,538.3240000000001,0.0
52689.0,STARLINK-4078,PAYLOAD,2023-01-19 08:34:17,15.08840742,0.0002014,53.2159,245.727,89.3553,270.767,0.00014399,2.004e-05,0.0,0 STARLINK-4078,1 52689U 22053AK  23019.35715250  .00002004  00000-0  14399-3 0  9990,2 52689  53.2159 245.7270 0002014  89.3553 270.7670 15.08840742 37844,6917.878000000001,95.438,541.136,538.35,0.0
52689.0,STARLINK-4078,PAYLOAD,2023-01-19 22:52:46,15.08836781,0.000179,53.2137,243.0515,83.7952,276.3244,2.1151e-05,4.8e-07,0.0,0 STARLINK-4078,1 52689U 22053AK  23019.95331419  .00000048  00000-0  21151-4 0  9998,2 52689  53.2137 243.0515 0001790  83.7952 276.3244 15.08836781 37931,6917.89,95.438,540.994,538.5169999999999,0.0
